IRIDIUM 144             
1 43249U 18030A   25098.08434231  .00000155  00000+0  48193-4 0  9992
2 43249  86.3916 112.3265 0002135  93.0035 267.1405 14.34219613367799
IRIDIUM 149             
1 43250U 18030B   25098.02091840  .00000123  00000+0  36968-4 0  9995
2 43250  86.3914 112.3249 0002213  95.2485 264.8963 14.34219234367782
IRIDIUM 157             
1 43251U 18030C   25098.10971619 -.00000063  00000+0 -29615-4 0  9992
2 43251  86.3919 112.3313 0002449  89.7467 270.4009 14.34217604367771
IRIDIUM 140             
1 43252U 18030D   25098.12874026  .00000359  00000+0  12103-3 0  9998
2 43252  86.3915 112.3374 0002103  92.0132 268.1305 14.34217936367836
IRIDIUM 145             
1 43253U 18030E   25097.76721448 -.00000014  00000+0 -12206-4 0  9992
2 43253  86.3918 112.4614 0001934 100.6335 259.5079 14.34217587367711
IRIDIUM 146             
1 43254U 18030F   25098.09702871 -.00000063  00000+0 -29433-4 0  9993
2 43254  86.3919 112.3373 0001895 100.3719 259.7690 14.34217187367776
IRIDIUM 148             
1 43255U 18030G   25097.78623954  .00000060  00000+0  14205-4 0  9999
2 43255  86.3918 112.5039 0002311  96.3590 263.7869 14.34216747367765
IRIDIUM 142             
1 43256U 18030H   25098.10337146 -.00000036  00000+0 -20031-4 0  9991
2 43256  86.3917 112.2757 0001965 103.6748 256.4667 14.34217026367777
